VNREDSAT 1              
1 39160U 13021B   24255.45927622  .00002931  00000+0  56909-3 0  9997
2 39160  97.9892 319.7161 0001381  86.7511 273.3850 14.63915184606073
ARIRANG-5 (KOMPSAT-5)   
1 39227U 13042A   24255.49795671  .00005623  00000+0  40600-3 0  9997
2 39227  97.6219  80.1962 0002391 120.1653 239.9810 15.04483038607133
SKYSAT-A                
1 39418U 13066C   24255.42244622  .00008982  00000+0  61221-3 0  9996
2 39418  97.4790 313.1277 0024780  14.6172 345.5766 15.06221341591320
DUBAISAT-2              
1 39419U 13066D   24255.49785558  .00010884  00000+0  83858-3 0  9996
2 39419  97.4216 256.5610 0014868  72.3665 287.9182 15.01711956589474
GPM-CORE                
1 39574U 14009C   24255.55739029  .00023871  00000+0  50329-3 0  9992
2 39574  64.9838 303.8600 0008589 262.9209  97.0955 15.45178567598419
SENTINEL-1A             
1 39634U 14016A   24255.07057326  .00001014  00000+0  22473-3 0  9991
2 39634  98.1828 260.9308 0001367  90.7219 269.4137 14.59203532556110
KAZEOSAT 1              
1 39731U 14024A   24255.46246446  .00001214  00000+0  38338-3 0  9993
2 39731  98.3892 330.4754 0001213  87.8256 272.3072 14.41993925545838
ALOS-2                  
1 39766U 14029A   24255.54498101  .00006919  00000+0  93255-3 0  9998
2 39766  97.9218 350.9504 0001560  98.9796 261.1592 14.79469796556447
KAZEOSAT 2              
1 40010U 14033A   24255.57282461  .00002919  00000+0  36702-3 0  9990
2 40010  97.6078 116.5283 0010322 288.0037  72.0052 14.82775844553476
HODOYOSHI-4             
1 40011U 14033B   24255.51237898  .00005182  00000+0  61311-3 0  9998
2 40011  97.5742 100.9425 0023483 276.0588  83.7952 14.84822964553172
DEIMOS-2                
1 40013U 14033D   24255.53384647  .00006079  00000+0  64283-3 0  9994
2 40013  97.6668 139.5868 0001295  60.7679 299.3668 14.89545947554614
HODOYOSHI-3             
1 40015U 14033F   24254.93749034  .00005736  00000+0  72442-3 0  9999
2 40015  97.5997  76.3200 0033969 315.7339  44.1159 14.81857654552079
SPOT 7                  
1 40053U 14034A   24255.51052040  .00002331  00000+0  49924-3 0  9998
2 40053  98.1504 320.8282 0001560  91.1985 268.9394 14.59639734543207
SKYSAT-B                
1 40072U 14037D   24254.72495686  .00005597  00000+0  66870-3 0  9997
2 40072  98.3257 170.2676 0005489 190.4464 169.6636 14.84624561550213
WORLDVIEW-3 (WV-3)      
1 40115U 14048A   24255.51639184  .00003923  00000+0  47619-3 0  9999
2 40115  97.8704 327.6738 0005085 298.6241  61.4462 14.84104941546413
GAOFEN-2                
1 40118U 14049A   24255.51457752  .00004183  00000+0  55477-3 0  9992
2 40118  98.1037 306.2412 0007792 138.0386 222.1424 14.80376920544006
YAOGAN-21               
1 40143U 14053A   24255.53317380  .00019177  00000+0  80119-3 0  9999
2 40143  97.2440 310.6866 0008524 240.9155 119.1230 15.23631841556967
YAOGAN-22               
1 40275U 14063A   24254.79615368  .00000047  00000+0  24808-3 0  9999
2 40275 100.6761  27.2574 0006267 196.9882 163.1021 13.15489533475082
ASNARO                  
1 40298U 14070A   24255.47977915  .00028518  00000+0  13474-2 0  9996
2 40298  97.4054 335.4228 0008427 218.1389 141.9250 15.19340725546277
HODOYOSHI-1             
1 40299U 14070B   24255.49193199  .00059024  00000+0  86187-3 0  9991
2 40299  97.1294 314.9075 0007529  91.1165 269.0953 15.55438653548504
YAOGAN-23               
1 40305U 14071A   24255.50013813  .00109030  00000+0  12074-2 0  9992
2 40305  97.6912 247.0461 0005661 106.8579 253.3299 15.62613492545811
YAOGAN-24               
1 40310U 14072A   24255.54773267  .00004021  00000+0  59022-3 0  9998
2 40310  98.0654  19.8895 0013381 164.7303 195.4313 14.76024970528788
CBERS 4                 
1 40336U 14079A   24255.48050742  .00000768  00000+0  28175-3 0  9991
2 40336  98.3928 321.5306 0001971  89.0714 271.0698 14.35495802511623
RESURS-P 2              
1 40360U 14087A   24255.51115520  .00067954  00000+0  63301-3 0  9997
2 40360  97.1453 343.0135 0004054 332.7186  27.3862 15.67147222544543
YAOGAN-26               
1 40362U 14088A   24255.50009992  .00025616  00000+0  10605-2 0  9991
2 40362  97.0820 271.7243 0011279 165.1356 195.0216 15.23853100540445
SMAP                    
1 40376U 15003A   24255.52421409  .00002539  00000+0  50052-3 0  9997
2 40376  98.1309 260.6997 0001693 102.4484 257.6907 14.63354170513484
KOMPSAT-3A              
1 40536U 15014A   24255.47421896  .00022130  00000+0  88935-3 0  9991
2 40536  97.6189 206.9398 0003903  46.4354 313.7207 15.24942711522848
SENTINEL-2A             
1 40697U 15028A   24255.04665673 -.00000022  00000+0  80518-5 0  9998
2 40697  98.5625 328.0697 0001080  96.4950 263.6356 14.30825115481622
GAOFEN-8                
1 40701U 15030A   24255.52423838  .00029982  00000+0  12269-2 0  9995
2 40701  97.6656  52.0536 0007610 312.8550  47.2047 15.24251400512794
CARBONITE 1 (CBNT-1)    
1 40718U 15032D   24255.53791339  .00006302  00000+0  85266-3 0  9999
2 40718  97.6547  91.5183 0014175 240.5598 119.4200 14.79258514494020
YAOGAN-27               
1 40878U 15040A   24255.50320061  .00000045  00000+0  22957-3 0  9998
2 40878 100.0826 260.2639 0007611 259.3760 100.6497 13.16025782434497
GAOFEN-9 01             
1 40894U 15047A   24255.50133455  .00004901  00000+0  64500-3 0  9997
2 40894  97.7214 306.9214 0030263  87.5436 272.9241 14.80282699484865
LAPAN-A2                
1 40931U 15052B   24231.70395842  .00002296  00000+0  22250-3 0  9992
2 40931   5.9997 265.9807 0013402 250.6059 109.2619 14.78018769480834
YAOGAN-28               
1 41026U 15064A   24255.55163159  .00022454  00000+0  93024-3 0  9999
2 41026  97.2223  42.5864 0007859 229.9836 130.0713 15.23888340492638
YAOGAN-29               
1 41038U 15069A   24255.54325176  .00002002  00000+0  25963-3 0  9999
2 41038  98.0551 270.4638 0001141  23.2984 336.8280 14.81924132475259
KENT RIDGE 1            
1 41167U 15077B   24255.49970961  .00009810  00000+0  45633-3 0  9993
2 41167  14.9823 351.4427 0009775 196.1094 163.8917 15.16186521483132
TELEOS-1                
1 41169U 15077D   24255.18439623  .00046900  00000+0  12407-2 0  9999
2 41169  14.9781 243.3711 0004741  33.5186 326.5437 15.36452830484076
GAOFEN-4                
1 41194U 15083A   24254.89374297 -.00000330  00000+0  00000+0 0  9997
2 41194   0.1060 285.0354 0001371 312.1431 180.6737  1.00272931 32060
JASON-3                 
1 41240U 16002A   24255.54090137 -.00000003  00000+0  24969-3 0  9993
2 41240  66.0436  31.9845 0007834 265.2393  94.7727 12.80929555404707
SENTINEL-3A             
1 41335U 16011A   24255.49426334  .00000701  00000+0  30782-3 0  9998
2 41335  98.6324 321.0379 0000915 101.0099 259.1184 14.26731404446275
ZIYUAN 3-2 (ZY 3-2)     
1 41556U 16033A   24255.51966341  .00018322  00000+0  81301-3 0  9998
2 41556  97.4490 330.0190 0003051 269.1820  90.9066 15.21624172460123
CARTOSAT-2C             
1 41599U 16040A   24255.43784380  .00014194  00000+0  67319-3 0  9991
2 41599  97.4652 313.5577 0013866 216.6509 143.3778 15.19306545455979
SKYSAT-C1               
1 41601U 16040C   24254.71441280  .00024983  00000+0  86616-3 0  9992
2 41601  97.0527 310.8684 0005776 121.5208 238.6598 15.29786048459221
LAPAN-A3                
1 41603U 16040E   24255.48768301  .00008684  00000+0  33687-3 0  9995
2 41603  97.1435 265.3513 0012981 147.2531 212.9515 15.26264184456384
BIROS                   
1 41604U 16040F   24255.56059180  .00027665  00000+0  65147-3 0  9999
2 41604  97.1196 281.7105 0010273  95.7981 264.4438 15.41855896457476
GAOFEN-3                
1 41727U 16049A   24255.53235148  .00000498  00000+0  16446-3 0  9994
2 41727  98.4076 261.9272 0001200  73.3008 286.8313 14.42226556425863
SKYSAT-C4               
1 41771U 16058B   24255.36296057  .00028434  00000+0  84456-3 0  9996
2 41771  97.0008 298.5961 0002632 119.4608 240.6899 15.34735466446431
SKYSAT-C5               
1 41772U 16058C   24254.72153644  .00028834  00000+0  80615-3 0  9997
2 41772  97.1487 307.4552 0003319 100.1131 260.0488 15.36632668444813
SKYSAT-C2               
1 41773U 16058D   24254.68282287  .00025271  00000+0  82422-3 0  9999
2 41773  97.0039 296.2340 0001073 189.9671 170.1551 15.31777196446191
SKYSAT-C3               
1 41774U 16058E   24254.64201615  .00034538  00000+0  84371-3 0  9993
2 41774  97.0012 305.1589 0003862 219.3190 140.7778 15.40748492446809
ALSAT 1B                
1 41785U 16059C   24255.51010604  .00001921  00000+0  31919-3 0  9999
2 41785  97.8146 280.4459 0010709 128.5070 231.7099 14.71195963425899
PATHFINDER 1            
1 41787U 16059E   24255.50847732  .00003155  00000+0  58221-3 0  9996
2 41787  97.8291 273.6018 0030947  96.5899 263.8830 14.65832291425340
SCATSAT 1               
1 41790U 16059H   24254.75502309  .00003866  00000+0  54942-3 0  9999
2 41790  98.2125 298.6773 0058615 157.7711 202.6059 14.76332759  6384
GOKTURK 1A              
1 41875U 16073A   24255.56537742  .00002208  00000+0  44258-3 0  9996
2 41875  98.1375 148.7552 0001428  84.2001 275.9363 14.62732518414735
RESOURCESAT-2A          
1 41877U 16074A   24255.50464561  .00000806  00000+0  38673-3 0  9997
2 41877  98.6391 327.1948 0002223 104.7564 255.3860 14.21672319402859
CARTOSAT-2D             
1 41948U 17008A   24254.94316802  .00014461  00000+0  69029-3 0  9996
2 41948  97.4167 312.7373 0005800 331.5348  28.5569 15.19147889419763
SENTINEL-2B             
1 42063U 17013A   24255.50123340  .00000745  00000+0  30064-3 0  9994
2 42063  98.5631 328.5178 0001101  90.5275 269.6034 14.30825524392608
ZHUHAI-1 02 (CAS-4B)    
1 42759U 17034B   24255.53656140  .00036896  00000+0  11378-2 0  9993
2 42759  43.0155  97.0897 0012886 217.7907 142.2042 15.32879486400636
NUSAT-3 (MILANESAT)     
1 42760U 17034C   24255.56037862  .00043080  00000+0  11693-2 0  9995
2 42760  43.0062  79.6370 0016723 241.7986 118.1181 15.36764540400853
ZHUHAI-1 01 (CAS-4A)    
1 42761U 17034D   24255.53039394  .00036122  00000+0  11076-2 0  9999
2 42761  43.0191  95.4041 0012873 229.3688 130.6047 15.33068631400643
